SAUDISAT 1C (SO-50)     
1 27607U 02058C   26177.25860940  .00000937  00000+0  12777-3 0  9999
2 27607  64.5520 100.9188 0075048 260.7782  98.4830 14.83064844265804
SAUDISAT 2              
1 28371U 04025F   26177.43937270  .00000249  00000+0  66807-4 0  9995
2 28371  98.5508 177.6604 0023432 268.3312  91.5201 14.56688789167091
SAUDISAT 3              
1 31118U 07012B   26177.57497832  .00000231  00000+0  45532-4 0  9990
2 31118  98.1458 127.9818 0014259 192.4380 167.6477 14.71430459 29125
PISAT                   
1 41784U 16059B   26177.47581771  .00000855  00000+0  15291-3 0  9996
2 41784  97.8180 177.5295 0029159 172.8528 187.3100 14.68998033521104
FLYING LAPTOP           
1 42831U 17042G   26177.71739538  .00003692  00000+0  29100-3 0  9992
2 42831  97.4725 332.8861 0019990  91.3734 268.9781 15.01205222487886
SALSAT                  
1 46495U 20068K   26177.49875036  .00007768  00000+0  27079-3 0  9994
2 46495  97.8850 181.1309 0007810 268.2261  91.8084 15.29924136316780
